CCSDS_OMM_VERS = 2.0
CREATION_DATE  = 
ORIGINATOR     = 

OBJECT_NAME    = STARLINK-36068
OBJECT_ID      = 2025-280AA
CENTER_NAME    = EARTH
REF_FRAME      = TEME
TIME_SYSTEM    = UTC
MEAN_ELEMENT_THEORY = SGP/SGP4

EPOCH          = 2025-12-31T22:00:01.999584
MEAN_MOTION    = 15.38405324
ECCENTRICITY   = .0003266
INCLINATION    = 69.9994
RA_OF_ASC_NODE = 145.9167
ARG_OF_PERICENTER = 282.0318
MEAN_ANOMALY   = 285.6676

EPHEMERIS_TYPE = 0
CLASSIFICATION_TYPE = U
NORAD_CAT_ID   = 66845
ELEMENT_SET_NO = 999
REV_AT_EPOCH   = 597
BSTAR          = -.60199031E-1
MEAN_MOTION_DOT = -.2033362E-1
MEAN_MOTION_DDOT = 0

CCSDS_OMM_VERS = 2.0
CREATION_DATE  = 
ORIGINATOR     = 

OBJECT_NAME    = STARLINK-36055
OBJECT_ID      = 2025-280AB
CENTER_NAME    = EARTH
REF_FRAME      = TEME
TIME_SYSTEM    = UTC
MEAN_ELEMENT_THEORY = SGP/SGP4

EPOCH          = 2025-12-31T22:00:01.999584
MEAN_MOTION    = 15.31516214
ECCENTRICITY   = .00037438
INCLINATION    = 69.9996
RA_OF_ASC_NODE = 146.0283
ARG_OF_PERICENTER = 282.7034
MEAN_ANOMALY   = 185.0022

EPHEMERIS_TYPE = 0
CLASSIFICATION_TYPE = U
NORAD_CAT_ID   = 66846
ELEMENT_SET_NO = 999
REV_AT_EPOCH   = 597
BSTAR          = -.75329778E-1
MEAN_MOTION_DOT = -.2074011E-1
MEAN_MOTION_DDOT = 0

CCSDS_OMM_VERS = 2.0
CREATION_DATE  = 
ORIGINATOR     = 

OBJECT_NAME    = STARLINK-36061
OBJECT_ID      = 2025-280AC
CENTER_NAME    = EARTH
REF_FRAME      = TEME
TIME_SYSTEM    = UTC
MEAN_ELEMENT_THEORY = SGP/SGP4

EPOCH          = 2025-12-31T22:00:01.999584
MEAN_MOTION    = 15.32256243
ECCENTRICITY   = .000369
INCLINATION    = 69.9998
RA_OF_ASC_NODE = 146.0127
ARG_OF_PERICENTER = 283.1456
MEAN_ANOMALY   = 198.6157

EPHEMERIS_TYPE = 0
CLASSIFICATION_TYPE = U
NORAD_CAT_ID   = 66847
ELEMENT_SET_NO = 999
REV_AT_EPOCH   = 592
BSTAR          = -.73565216E-1
MEAN_MOTION_DOT = -.2073149E-1
MEAN_MOTION_DDOT = 0

CCSDS_OMM_VERS = 2.0
CREATION_DATE  = 
ORIGINATOR     = 

OBJECT_NAME    = STARLINK-36091
OBJECT_ID      = 2025-281A
CENTER_NAME    = EARTH
REF_FRAME      = TEME
TIME_SYSTEM    = UTC
MEAN_ELEMENT_THEORY = SGP/SGP4

EPOCH          = 2025-12-31T09:19:00.962112
MEAN_MOTION    = 15.50686545
ECCENTRICITY   = .00027014
INCLINATION    = 43.0016
RA_OF_ASC_NODE = 10.6056
ARG_OF_PERICENTER = 268.1968
MEAN_ANOMALY   = 91.8583

EPHEMERIS_TYPE = 0
CLASSIFICATION_TYPE = U
NORAD_CAT_ID   = 66848
ELEMENT_SET_NO = 999
REV_AT_EPOCH   = 572
BSTAR          = .1780307E-2
MEAN_MOTION_DOT = .105937E-2
MEAN_MOTION_DDOT = 0

CCSDS_OMM_VERS = 2.0
CREATION_DATE  = 
ORIGINATOR     = 

OBJECT_NAME    = STARLINK-36102
OBJECT_ID      = 2025-281B
CENTER_NAME    = EARTH
REF_FRAME      = TEME
TIME_SYSTEM    = UTC
MEAN_ELEMENT_THEORY = SGP/SGP4

EPOCH          = 2025-12-31T09:18:31.911840
MEAN_MOTION    = 15.50570314
ECCENTRICITY   = .00014816
INCLINATION    = 42.9998
RA_OF_ASC_NODE = 10.6005
ARG_OF_PERICENTER = 275.8474
MEAN_ANOMALY   = 84.2217

EPHEMERIS_TYPE = 0
CLASSIFICATION_TYPE = U
NORAD_CAT_ID   = 66849
ELEMENT_SET_NO = 999
REV_AT_EPOCH   = 572
BSTAR          = .16560339E-2
MEAN_MOTION_DOT = .98004E-3
MEAN_MOTION_DDOT = 0

CCSDS_OMM_VERS = 2.0
CREATION_DATE  = 
ORIGINATOR     = 

OBJECT_NAME    = STARLINK-36105
OBJECT_ID      = 2025-281C
CENTER_NAME    = EARTH
REF_FRAME      = TEME
TIME_SYSTEM    = UTC
MEAN_ELEMENT_THEORY = SGP/SGP4

EPOCH          = 2025-12-31T10:50:47.789664
MEAN_MOTION    = 15.50571735
ECCENTRICITY   = .00013372
INCLINATION    = 43.0007
RA_OF_ASC_NODE = 10.2217
ARG_OF_PERICENTER = 277.9274
MEAN_ANOMALY   = 82.1435

EPHEMERIS_TYPE = 0
CLASSIFICATION_TYPE = U
NORAD_CAT_ID   = 66850
ELEMENT_SET_NO = 999
REV_AT_EPOCH   = 573
BSTAR          = .20512725E-2
MEAN_MOTION_DOT = .121855E-2
MEAN_MOTION_DDOT = 0

CCSDS_OMM_VERS = 2.0
CREATION_DATE  = 
ORIGINATOR     = 

OBJECT_NAME    = STARLINK-36094
OBJECT_ID      = 2025-281D
CENTER_NAME    = EARTH
REF_FRAME      = TEME
TIME_SYSTEM    = UTC
MEAN_ELEMENT_THEORY = SGP/SGP4

EPOCH          = 2025-12-31T07:44:47.658048
MEAN_MOTION    = 15.50731241
ECCENTRICITY   = .0000982
INCLINATION    = 43.0019
RA_OF_ASC_NODE = 10.9708
ARG_OF_PERICENTER = 245.1982
MEAN_ANOMALY   = 114.8776

EPHEMERIS_TYPE = 0
CLASSIFICATION_TYPE = U
NORAD_CAT_ID   = 66851
ELEMENT_SET_NO = 999
REV_AT_EPOCH   = 571
BSTAR          = .22035E-2
MEAN_MOTION_DOT = .13184E-2
MEAN_MOTION_DDOT = 0

CCSDS_OMM_VERS = 2.0
CREATION_DATE  = 
ORIGINATOR     = 

OBJECT_NAME    = STARLINK-35992
OBJECT_ID      = 2025-281E
CENTER_NAME    = EARTH
REF_FRAME      = TEME
TIME_SYSTEM    = UTC
MEAN_ELEMENT_THEORY = SGP/SGP4

EPOCH          = 2025-12-31T09:17:03.254208
MEAN_MOTION    = 15.50656546
ECCENTRICITY   = .00031778
INCLINATION    = 43.0042
RA_OF_ASC_NODE = 10.5969
ARG_OF_PERICENTER = 266.6952
MEAN_ANOMALY   = 93.3545

EPHEMERIS_TYPE = 0
CLASSIFICATION_TYPE = U
NORAD_CAT_ID   = 66852
ELEMENT_SET_NO = 999
REV_AT_EPOCH   = 572
BSTAR          = .16744461E-2
MEAN_MOTION_DOT = .99431E-3
MEAN_MOTION_DDOT = 0

CCSDS_OMM_VERS = 2.0
CREATION_DATE  = 
ORIGINATOR     = 

OBJECT_NAME    = STARLINK-35986
OBJECT_ID      = 2025-281F
CENTER_NAME    = EARTH
REF_FRAME      = TEME
TIME_SYSTEM    = UTC
MEAN_ELEMENT_THEORY = SGP/SGP4

EPOCH          = 2025-12-31T09:16:33.187872
MEAN_MOTION    = 15.50674331
ECCENTRICITY   = .00024735
INCLINATION    = 43.0024
RA_OF_ASC_NODE = 10.5913
ARG_OF_PERICENTER = 267.3032
MEAN_ANOMALY   = 92.7545

EPHEMERIS_TYPE = 0
CLASSIFICATION_TYPE = U
NORAD_CAT_ID   = 66853
ELEMENT_SET_NO = 999
REV_AT_EPOCH   = 572
BSTAR          = .16852907E-2
MEAN_MOTION_DOT = .100145E-2
MEAN_MOTION_DDOT = 0

CCSDS_OMM_VERS = 2.0
CREATION_DATE  = 
ORIGINATOR     = 

OBJECT_NAME    = STARLINK-36087
OBJECT_ID      = 2025-281G
CENTER_NAME    = EARTH
REF_FRAME      = TEME
TIME_SYSTEM    = UTC
MEAN_ELEMENT_THEORY = SGP/SGP4

EPOCH          = 2025-12-31T07:43:18.311808
MEAN_MOTION    = 15.50609089
ECCENTRICITY   = .0000906
INCLINATION    = 42.9994
RA_OF_ASC_NODE = 10.9629
ARG_OF_PERICENTER = 253.7900
MEAN_ANOMALY   = 106.2860

EPHEMERIS_TYPE = 0
CLASSIFICATION_TYPE = U
NORAD_CAT_ID   = 66854
ELEMENT_SET_NO = 999
REV_AT_EPOCH   = 571
BSTAR          = .21764E-2
MEAN_MOTION_DOT = .129612E-2
MEAN_MOTION_DDOT = 0

CCSDS_OMM_VERS = 2.0
CREATION_DATE  = 
ORIGINATOR     = 

OBJECT_NAME    = STARLINK-36090
OBJECT_ID      = 2025-281H
CENTER_NAME    = EARTH
REF_FRAME      = TEME
TIME_SYSTEM    = UTC
MEAN_ELEMENT_THEORY = SGP/SGP4

EPOCH          = 2025-12-31T07:42:48.813984
MEAN_MOTION    = 15.50682655
ECCENTRICITY   = .0001462
INCLINATION    = 42.9977
RA_OF_ASC_NODE = 10.9601
ARG_OF_PERICENTER = 125.8695
MEAN_ANOMALY   = 234.2301

EPHEMERIS_TYPE = 0
CLASSIFICATION_TYPE = U
NORAD_CAT_ID   = 66855
ELEMENT_SET_NO = 999
REV_AT_EPOCH   = 571
BSTAR          = .18074E-2
MEAN_MOTION_DOT = .107554E-2
MEAN_MOTION_DDOT = 0

CCSDS_OMM_VERS = 2.0
CREATION_DATE  = 
ORIGINATOR     = 

OBJECT_NAME    = STARLINK-36072
OBJECT_ID      = 2025-281J
CENTER_NAME    = EARTH
REF_FRAME      = TEME
TIME_SYSTEM    = UTC
MEAN_ELEMENT_THEORY = SGP/SGP4

EPOCH          = 2025-12-31T07:42:19.074240
MEAN_MOTION    = 15.50670317
ECCENTRICITY   = .0000876
INCLINATION    = 42.9975
RA_OF_ASC_NODE = 10.9570
ARG_OF_PERICENTER = 214.2715
MEAN_ANOMALY   = 145.8089

EPHEMERIS_TYPE = 0
CLASSIFICATION_TYPE = U
NORAD_CAT_ID   = 66856
ELEMENT_SET_NO = 999
REV_AT_EPOCH   = 571
BSTAR          = .17202E-2
MEAN_MOTION_DOT = .102236E-2
MEAN_MOTION_DDOT = 0

