STARLINK-36068          
1 66845U 25280AA  25365.91668981 -.02033362  00000+0 -60199-1 0  9991
2 66845  69.9994 145.9167 0003266 282.0318 285.6676 15.38405324  5977
STARLINK-36055          
1 66846U 25280AB  25365.91668981 -.02074011  00000+0 -75330-1 0  9991
2 66846  69.9996 146.0283 0003743 282.7034 185.0022 15.31516214  5975
STARLINK-36061          
1 66847U 25280AC  25365.91668981 -.02073149  00000+0 -73565-1 0  9991
2 66847  69.9998 146.0127 0003690 283.1456 198.6157 15.32256243  5927
STARLINK-36091          
1 66848U 25281A   25365.38820558  .00105937  00000+0  17803-2 0  9995
2 66848  43.0016  10.6056 0002701 268.1968  91.8583 15.50686545  5729
STARLINK-36102          
1 66849U 25281B   25365.38786935  .00098004  00000+0  16560-2 0  9991
2 66849  42.9998  10.6005 0001481 275.8474  84.2217 15.50570314  5728
STARLINK-36105          
1 66850U 25281C   25365.45194201  .00121855  00000+0  20513-2 0  9994
2 66850  43.0007  10.2217 0001337 277.9274  82.1435 15.50571735  5733
STARLINK-36094          
1 66851U 25281D   25365.32277382  .00131840  00000+0  22035-2 0  9999
2 66851  43.0019  10.9708 0000982 245.1982 114.8776 15.50731241  5716
STARLINK-35992          
1 66852U 25281E   25365.38684322  .00099431  00000+0  16744-2 0  9991
2 66852  43.0042  10.5969 0003177 266.6952  93.3545 15.50656546  5722
STARLINK-35986          
1 66853U 25281F   25365.38649523  .00100145  00000+0  16853-2 0  9992
2 66853  43.0024  10.5913 0002473 267.3032  92.7545 15.50674331  5722
STARLINK-36087          
1 66854U 25281G   25365.32173972  .00129612  00000+0  21764-2 0  9994
2 66854  42.9994  10.9629 0000906 253.7900 106.2860 15.50609089  5715
STARLINK-36090          
1 66855U 25281H   25365.32139831  .00107554  00000+0  18074-2 0  9992
2 66855  42.9977  10.9601 0001462 125.8695 234.2301 15.50682655  5717
STARLINK-36072          
1 66856U 25281J   25365.32105410  .00102236  00000+0  17202-2 0  9993
2 66856  42.9975  10.9570 0000876 214.2715 145.8089 15.50670317  5717
